{"fetched_at":"2026-03-29T16:36:15Z","count":15609,"tles":[{"name":"STARLINK-31501","line1":"1 59359U 24060M   26087.87138328 -.00001716  00000+0 -52865-4 0  9992","line2":"2 59359  42.9988 151.7727 0000483 305.7268  54.3539 15.27585072112992","category":"Starlink"}]}