{
  "norad_id": 59359,
  "name": "STARLINK-31501",
  "history": [
    {
      "epoch": "2026-03-28T20:54:47.515392Z",
      "apogee_km": 483.36550907905075,
      "perigee_km": 482.7023082990163,
      "latitude_deg": 2.8951608640958994e-05,
      "longitude_deg": 11.789139608821584,
      "height_km": 482.61596768646353,
      "semi_major_axis_km": 6861.170908689033,
      "eccentricity": 4.833e-05,
      "inclination_deg": 42.9988,
      "raan_deg": 151.7727,
      "arg_perigee_deg": 305.7268,
      "mean_anomaly_deg": 54.3539,
      "mean_motion_rev_day": 15.27585072
    }
  ]
}